[{"OBJECT_NAME":"STARLINK-30469","OBJECT_ID":"2023-146F","EPOCH":"2026-03-09T22:00:01.999584","MEAN_MOTION":15.08741624,"ECCENTRICITY":0.00012153,"INCLINATION":42.9999,"RA_OF_ASC_NODE":312.1219,"ARG_OF_PERICENTER":254.0494,"MEAN_ANOMALY":345.6756,"EPHEMERIS_TYPE":0,"CLASSIFICATION_TYPE":"U","NORAD_CAT_ID":57896,"ELEMENT_SET_NO":999,"REV_AT_EPOCH":578,"BSTAR":0.099451711,"MEAN_MOTION_DOT":0.01743611,"MEAN_MOTION_DDOT":0},{"OBJECT_NAME":"CZ-4B DEB","OBJECT_ID":"2008-053L","EPOCH":"2026-03-08T19:52:33.417984","MEAN_MOTION":15.09778257,"ECCENTRICITY":0.00077037,"INCLINATION":97.7892,"RA_OF_ASC_NODE":87.441,"ARG_OF_PERICENTER":237.5543,"MEAN_ANOMALY":122.4941,"EPHEMERIS_TYPE":0,"CLASSIFICATION_TYPE":"U","NORAD_CAT_ID":36290,"ELEMENT_SET_NO":999,"REV_AT_EPOCH":71411,"BSTAR":0.00021001,"MEAN_MOTION_DOT":3.326e-5,"MEAN_MOTION_DDOT":0}]
